NORAD_CAT_ID,OBJECT_NAME,OBJECT_TYPE,EPOCH,MEAN_MOTION,ECCENTRICITY,INCLINATION,RA_OF_ASC_NODE,ARG_OF_PERICENTER,MEAN_ANOMALY,BSTAR,MEAN_MOTION_DOT,MEAN_MOTION_DDOT,TLE_LINE0,TLE_LINE1,TLE_LINE2,SEMIMAJOR_AXIS,PERIOD,APOGEE,PERIGEE,DECAYED
53613.0,STARLINK-4655,PAYLOAD,2022-10-23 14:00:01,15.35142998,0.0001875,53.2175,10.9567,40.5782,207.0558,-0.034472,-0.01092595,0.0,0 STARLINK-4655,1 53613U 22104AB  22296.58334491 -.01092595  00000-0 -34472-1 0  9999,2 53613  53.2175  10.9567 0001875  40.5782 207.0558 15.35142998  1306,6838.6330000000025,93.802,461.78,459.216,0.0
53613.0,STARLINK-4655,PAYLOAD,2022-10-23 22:00:00,15.34365906,0.0001732,53.2174,9.3983,30.2336,260.125,-0.03455,-0.01070057,0.0,0 STARLINK-4655,1 53613U 22104AB  22296.91667824 -.01070057  00000-0 -34550-1 0  9991,2 53613  53.2174   9.3983 0001732  30.2336 260.1250 15.34365906  1306,6840.941999999999,93.85,463.991,461.622,0.0
53613.0,STARLINK-4655,PAYLOAD,2022-10-24 06:00:00,15.33641936,0.0006407,53.2173,7.8426,270.6264,61.5167,-0.037074,-0.01119091,0.0,0 STARLINK-4655,1 53613U 22104AB  22297.25001157 -.01119091  00000-0 -37074-1 0  9996,2 53613  53.2173   7.8426 0006407 270.6264  61.5167 15.33641936  8984,6843.094,93.894,469.344,460.575,0.0
53613.0,STARLINK-4655,PAYLOAD,2022-10-24 14:00:01,15.32863287,0.0001199,53.2175,6.2911,14.2151,358.8252,-0.037006,-0.01090601,0.0,0 STARLINK-4655,1 53613U 22104AB  22297.58334491 -.01090601  00000-0 -37006-1 0  9992,2 53613  53.2175   6.2911 0001199  14.2151 358.8252 15.32863287  1308,6845.411,93.942,468.097,466.456,0.0
53613.0,STARLINK-4655,PAYLOAD,2022-10-24 22:00:00,15.32086356,0.0001506,53.2174,4.7379,44.4227,8.6039,-0.037058,-0.01067728,0.0,0 STARLINK-4655,1 53613U 22104AB  22297.91667824 -.01067728  00000-0 -37058-1 0  9999,2 53613  53.2174   4.7379 0001506  44.4227   8.6039 15.32086356  1306,6847.726,93.989,470.622,468.559,0.0
53613.0,STARLINK-4655,PAYLOAD,2022-10-25 14:00:01,15.30576915,0.0001549,53.2174,1.6417,55.0034,75.2321,-0.039326,-0.010796,0.0,0 STARLINK-4655,1 53613U 22104AB  22298.58334491 -.01079600  00000-0 -39326-1 0  9996,2 53613  53.2174   1.6417 0001549  55.0034  75.2321 15.30576915  1303,6852.227,94.082,475.153,473.03,0.0
53613.0,STARLINK-4655,PAYLOAD,2022-10-25 22:00:01,15.2980641,0.000157,53.2175,0.0937,51.6047,115.9394,-0.039656,-0.01064201,0.0,0 STARLINK-4655,1 53613U 22104AB  22298.91668981 -.01064201  00000-0 -39656-1 0  9994,2 53613  53.2175   0.0937 0001570  51.6047 115.9394 15.29806410  9241,6854.528,94.13,477.469,475.316,0.0
53613.0,STARLINK-4655,PAYLOAD,2022-10-26 14:00:01,15.28286082,0.0001661,53.2176,357.0083,48.3873,190.8314,-0.041434,-0.01061121,0.0,0 STARLINK-4655,1 53613U 22104AB  22299.58334491 -.01061121  00000-0 -41434-1 0  9999,2 53613  53.2176 357.0083 0001661  48.3873 190.8314 15.28286082  1309,6859.073,94.223,482.077,479.798,0.0
53613.0,STARLINK-4655,PAYLOAD,2022-10-26 22:00:00,15.27529734,0.0001406,53.2176,355.4657,57.9086,215.8105,-0.042644,-0.01066489,0.0,0 STARLINK-4655,1 53613U 22104AB  22299.91667824 -.01066489  00000-0 -42644-1 0  9991,2 53613  53.2176 355.4657 0001406  57.9086 215.8105 15.27529734  9393,6861.337,94.27,484.166,482.237,0.0
53613.0,STARLINK-4655,PAYLOAD,2022-10-27 14:00:01,15.26022576,0.0001462,53.2169,352.3912,50.3595,289.6789,-0.045337,-0.01081525,0.0,0 STARLINK-4655,1 53613U 22104AB  22300.58335648 -.01081525  00000-0 -45337-1 0  9993,2 53613  53.2169 352.3912 0001462  50.3595 289.6789 15.26022576  1300,6865.854,94.363,488.722,486.715,0.0
53613.0,STARLINK-4655,PAYLOAD,2022-10-27 22:00:00,15.25259104,0.000144,53.2171,350.8539,44.5171,327.2242,-0.046221,-0.01077733,0.0,0 STARLINK-4655,1 53613U 22104AB  22300.91667824 -.01077733  00000-0 -46221-1 0  9993,2 53613  53.2171 350.8539 0001440  44.5171 327.2242 15.25259104  1303,6868.145,94.41,490.999,489.02,0.0
53613.0,STARLINK-4655,PAYLOAD,2022-10-28 00:00:02,15.25058362,0.0001599,53.2173,350.4699,44.9224,64.6857,-0.045775,-0.01062293,0.0,0 STARLINK-4655,1 53613U 22104AB  22301.00002315 -.01062293  00000-0 -45775-1 0  9990,2 53613  53.2173 350.4699 0001599  44.9224  64.6857 15.25058362  9569,6868.746999999999,94.423,491.711,489.514,0.0
53613.0,STARLINK-4655,PAYLOAD,2022-10-28 14:00:01,15.23729944,0.0001474,53.217,347.7898,51.0792,21.5161,-0.047642,-0.01062288,0.0,0 STARLINK-4655,1 53613U 22104AB  22301.58335648 -.01062288  00000-0 -47642-1 0  9990,2 53613  53.2170 347.7898 0001474  51.0792  21.5161 15.23729944  1300,6872.739000000001,94.505,495.617,493.591,0.0
53613.0,STARLINK-4655,PAYLOAD,2022-10-28 22:00:01,15.22970266,0.000149,53.2175,346.2578,51.0352,50.58600000000001,-0.048744,-0.01062446,0.0,0 STARLINK-4655,1 53613U 22104AB  22301.91668981 -.01062446  00000-0 -48744-1 0  9996,2 53613  53.2175 346.2578 0001490  51.0352  50.5860 15.22970266  1306,6875.024,94.552,497.913,495.865,0.0
53613.0,STARLINK-4655,PAYLOAD,2022-10-29 12:00:00,15.21666356,0.0001505,53.2169,343.5861,48.7212,11.4188,-0.052373,-0.01109318,0.0,0 STARLINK-4655,1 53613U 22104AB  22302.50001157 -.01109318  00000-0 -52373-1 0  9991,2 53613  53.2169 343.5861 0001505  48.7212  11.4188 15.21666356  1309,6878.951,94.633,501.851,499.781,0.0
53613.0,STARLINK-4655,PAYLOAD,2022-10-29 22:00:01,15.20690651,0.0001583,53.2172,341.6779,51.608,131.6113,-0.052034,-0.01060297,0.0,0 STARLINK-4655,1 53613U 22104AB  22302.91668981 -.01060297  00000-0 -52034-1 0  9996,2 53613  53.2172 341.6779 0001583  51.6080 131.6113 15.20690651  1309,6881.893,94.694,504.848,502.669,0.0
53613.0,STARLINK-4655,PAYLOAD,2022-10-30 00:00:00,15.20501318,0.0001459,53.2174,341.2967,54.8116,224.7732,-0.052375,-0.0106121,0.0,0 STARLINK-4655,1 53613U 22104AB  22303.00001157 -.01061210  00000-0 -52375-1 0  9997,2 53613  53.2174 341.2967 0001459  54.8116 224.7732 15.20501318  9864,6882.464,94.706,505.334,503.325,0.0
53613.0,STARLINK-4655,PAYLOAD,2022-10-30 14:00:01,15.19149298,0.0001495,53.2168,338.6353,58.5788,174.4211,-0.052612,-0.01027576,0.0,0 STARLINK-4655,1 53613U 22104AB  22303.58334491 -.01027576  00000-0 -52612-1 0  9991,2 53613  53.2168 338.6353 0001495  58.5788 174.4211 15.19149298  1309,6886.547,94.79,509.442,507.383,0.0
53613.0,STARLINK-4655,PAYLOAD,2022-10-30 22:00:01,15.18413182,0.0001536,53.2171,337.1139,52.3541,204.2484,-0.055672,-0.01074672,0.0,0 STARLINK-4655,1 53613U 22104AB  22303.91668981 -.01074672  00000-0 -55672-1 0  9990,2 53613  53.2171 337.1139 0001536  52.3541 204.2484 15.18413182  1303,6888.773,94.836,511.696,509.58,0.0
53613.0,STARLINK-4655,PAYLOAD,2022-10-31 14:00:01,15.16900116,0.0001413,53.2165,334.082,54.9448,245.9493,-0.058612,-0.01082393,0.0,0 STARLINK-4655,1 53613U 22104AB  22304.58334491 -.01082393  00000-0 -58612-1 0  9996,2 53613  53.2165 334.0820 0001413  54.9448 245.9493 15.16900116  1305,6893.353,94.93,516.192,514.244,0.0
53613.0,STARLINK-4655,PAYLOAD,2022-10-31 22:00:01,15.16140571,0.0001475,53.2169,332.5661,47.2748,274.4943,-0.0599309999999999,-0.01082849,0.0,0 STARLINK-4655,1 53613U 22104AB  22304.91668981 -.01082849  00000-0 -59931-1 0  9998,2 53613  53.2169 332.5661 0001475  47.2748 274.4943 15.16140571 10152,6895.655,94.978,518.5369999999998,516.503,0.0
53613.0,STARLINK-4655,PAYLOAD,2022-11-01 14:00:01,15.14622611,0.0001406999999999,53.2165,329.5445,52.4154,308.1723,-0.062658,-0.01084028,0.0,0 STARLINK-4655,1 53613U 22104AB  22305.58334491 -.01084028  00000-0 -62658-1 0  9999,2 53613  53.2165 329.5445 0001407  52.4154 308.1723 15.14622611  1315,6900.262,95.073,523.097,521.156,0.0
53613.0,STARLINK-4655,PAYLOAD,2022-11-01 22:00:00,15.13853917,0.0001320999999999,53.2174,328.034,56.9699,321.6958,-0.063216,-0.01071094,0.0,0 STARLINK-4655,1 53613U 22104AB  22305.91667824 -.01071094  00000-0 -63216-1 0  9995,2 53613  53.2174 328.0340 0001321  56.9699 321.6958 15.13853917  1304,6902.597,95.121,525.374,523.55,0.0
53613.0,STARLINK-4655,PAYLOAD,2022-11-02 14:00:01,15.12337091,0.0001453,53.2173,325.0232,51.139,0.9318,-0.066145,-0.01073658,0.0,0 STARLINK-4655,1 53613U 22104AB  22306.58334491 -.01073658  00000-0 -66145-1 0  9992,2 53613  53.2173 325.0232 0001453  51.1390   0.9318 15.12337091  1307,6907.212,95.217,530.08,528.073,0.0
53613.0,STARLINK-4655,PAYLOAD,2022-11-02 22:00:00,15.11575857,0.0001411,53.2173,323.5178,55.6023,11.8052,-0.067452,-0.01071912,0.0,0 STARLINK-4655,1 53613U 22104AB  22306.91667824 -.01071912  00000-0 -67452-1 0  9991,2 53613  53.2173 323.5178 0001411  55.6023  11.8052 15.11575857 10461,6909.531,95.265,532.371,530.4209999999998,0.0
53613.0,STARLINK-4655,PAYLOAD,2022-11-03 14:00:01,15.10059942,0.0001799,53.2161,320.5174,47.8801,47.4545,-0.070383,-0.01072323,0.0,0 STARLINK-4655,1 53613U 22104AB  22307.58334491 -.01072323  00000-0 -70383-1 0  9990,2 53613  53.2161 320.5174 0001799  47.8801  47.4545 15.10059942  1303,6914.154,95.36,537.263,534.775,0.0
53613.0,STARLINK-4655,PAYLOAD,2022-11-03 22:00:00,15.09196913,0.0001675999999999,53.2173,319.0176,56.1535,51.7908,-0.030279,-0.00456976,0.0,0 STARLINK-4655,1 53613U 22104AB  22307.91667824 -.00456976  00000-0 -30279-1 0  9995,2 53613  53.2173 319.0176 0001676  56.1535  51.7908 15.09196913 10615,6916.79,95.415,539.814,537.495,0.0
53613.0,STARLINK-4655,PAYLOAD,2022-11-04 00:00:00,15.09058037,0.000175,53.2174,318.6433,57.4352,143.516,-0.02065,-0.00316655,0.0,0 STARLINK-4655,1 53613U 22104AB  22308.00001157 -.00316655  00000-0 -20650-1 0  9998,2 53613  53.2174 318.6433 0001750  57.4352 143.5160 15.09058037  1301,6917.214,95.424,540.29,537.869,0.0
53613.0,STARLINK-4655,PAYLOAD,2022-11-04 06:00:00,15.08836659,0.0001686999999999,53.2173,317.5223,50.2735,69.4929,-2.7142e-06,-3.31e-06,0.0,0 STARLINK-4655,1 53613U 22104AB  22308.25001157 -.00000331  00000-0 -27142-5 0  9993,2 53613  53.2173 317.5223 0001687  50.2735  69.4929 15.08836659 10661,6917.891,95.438,540.923,538.589,0.0
